     2.100          NAVIGATION                              RINEX VERSION / TYPE
fic2rin                                 07/01/2012 00:37:32 PGM / RUN BY / DATE
                                                            END OF HEADER
 8 12  6 30  1 59 28.0  .162096694112D-05  .113686837722D-12  .000000000000D+00
     .210000000000D+02 -.942812500000D+02  .368765360557D-08  .126505216385D+01
    -.478327274323D-05  .123862217879D-01  .436790287495D-05  .515367388153D+04
     .525568000000D+06 -.819563865662D-07  .150744156676D+01  .210478901863D-06
     .997864503028D+00  .315625000000D+03 -.296437780911D+01 -.794640242813D-08
    -.365372362083D-09  .100000000000D+01  .169400000000D+04  .000000000000D+00
     .240000000000D+01  .000000000000D+00 -.372529029846D-08  .210000000000D+02
     .518406000000D+06  .400000000000D+01
 6 12  6 30  1 59 44.0  .129002146423D-04 -.432009983342D-11  .000000000000D+00
     .200000000000D+01  .656250000000D+01  .537772400379D-08 -.911374686894D+00
     .147148966789D-06  .735972111579D-02  .752881169319D-05  .515368116188D+04
     .525584000000D+06 -.260770320892D-07 -.283936004702D+01 -.856816768646D-07
     .938641876533D+00  .223562500000D+03 -.507569948909D+00 -.844213736319D-08
     .600739308918D-09  .100000000000D+01  .169400000000D+04  .000000000000D+00
     .240000000000D+01  .000000000000D+00 -.512227416039D-08  .200000000000D+01
     .518406000000D+06  .400000000000D+01
 7 12  6 30  1 59 44.0  .955560244620D-04  .375166564481D-11  .000000000000D+00
     .200000000000D+01 -.862500000000D+02  .423410493889D-08  .197646234716D+01
    -.444240868092D-05  .557611358818D-02  .345148146152D-05  .515360559464D+04
     .525584000000D+06 -.651925802231D-07  .142334966939D+01  .128522515297D-06
     .975653281155D+00  .320031250000D+03 -.302660919435D+01 -.822498546080D-08
    -.233224000430D-09  .100000000000D+01  .169400000000D+04  .000000000000D+00
     .240000000000D+01  .000000000000D+00 -.107102096081D-07  .200000000000D+01
     .518406000000D+06  .400000000000D+01
17 12  6 30  1 59 44.0  .117193907499D-03 -.295585778076D-11  .000000000000D+00
     .210000000000D+02  .315625000000D+01  .484984487265D-08 -.157430255815D+01
     .258907675743D-06  .739679869730D-02  .735186040401D-05  .515369555855D+04
     .525584000000D+06  .143423676491D-06 -.274505019498D+01  .000000000000D+00
     .963377887276D+00  .237468750000D+03 -.229532669528D+01 -.798461830569D-08
     .547165648788D-09  .100000000000D+01  .169400000000D+04  .000000000000D+00
     .240000000000D+01  .000000000000D+00 -.107102096081D-07  .210000000000D+02
     .518406000000D+06  .400000000000D+01
 1 12  6 30  2  0  0.0  .263533554971D-03  .159161572810D-11  .000000000000D+00
     .105000000000D+03 -.136875000000D+02  .492734810097D-08  .245007051973D+01
    -.713393092155D-06  .861902837642D-03  .748969614506D-05  .515364180946D+04
     .525600000000D+06 -.596046447754D-07 -.173735069558D+01  .428408384323D-07
     .959665069948D+00  .234187500000D+03  .245047937607D+00 -.805890711440D-08
    -.361443627006D-09  .100000000000D+01  .169400000000D+04  .000000000000D+00
     .240000000000D+01  .000000000000D+00  .838190317154D-08  .105000000000D+03
     .518406000000D+06  .400000000000D+01
 2 12  6 30  2  0  0.0  .395274255425D-03  .125055521494D-11  .000000000000D+00
     .480000000000D+02 -.235937500000D+02  .538486715847D-08 -.296320358183D+01
    -.129826366901D-05  .112953667995D-01  .715442001820D-05  .515370885086D+04
     .525600000000D+06 -.139698386192D-06 -.175181331876D+01 -.175088644028D-06
     .938210974013D+00  .227250000000D+03 -.276518799087D+01 -.820391315448D-08
    -.482520098899D-09  .100000000000D+01  .169400000000D+04  .000000000000D+00
     .240000000000D+01  .000000000000D+00 -.172294676304D-07  .480000000000D+02
     .518406000000D+06  .400000000000D+01
 3 12  6 30  2  0  0.0  .689672306180D-04  .500222085975D-11  .000000000000D+00
     .105000000000D+03  .696875000000D+01  .538843873582D-08 -.278699585551D+01
     .109896063805D-06  .154645005241D-01  .770017504692D-05  .515371996498D+04
     .525600000000D+06  .275671482086D-06 -.291621328968D+01 -.856816768646D-07
     .931824899184D+00  .212031250000D+03  .120053941638D+01 -.817284043161D-08
     .617882880159D-09  .100000000000D+01  .169400000000D+04  .000000000000D+00
     .240000000000D+01  .000000000000D+00 -.465661287308D-08  .105000000000D+03
     .518406000000D+06  .400000000000D+01
 4 12  6 30  2  0  0.0  .229326542467D-03  .113686837722D-10  .000000000000D+00
     .900000000000D+02 -.152812500000D+02  .552773025215D-08  .252779490378D+00
    -.579282641411D-06  .100226389477D-01  .708363950253D-05  .515361048126D+04
     .525600000000D+06 -.931322574615D-08 -.173494938431D+01  .949949026108D-07
     .937263599968D+00  .228781250000D+03  .863246488790D+00 -.857357140938D-08
    -.524307553800D-09  .100000000000D+01  .169400000000D+04  .000000000000D+00
     .240000000000D+01  .000000000000D+00 -.605359673500D-08  .900000000000D+02
     .518406000000D+06  .400000000000D+01
 5 12  6 30  2  0  0.0 -.330114737153D-03 -.352429196937D-11  .000000000000D+00
     .740000000000D+02  .838437500000D+02  .447125767440D-08 -.839453202938D+00
     .428035855293D-05  .270119146444D-02  .118669122458D-04  .515369627953D+04
     .525600000000D+06  .670552253723D-07 -.688033852515D+00 -.502914190292D-07
     .950757130622D+00  .146625000000D+03  .206732107451D+00 -.791925844033D-08
    -.411088552060D-09  .100000000000D+01  .169400000000D+04  .000000000000D+00
     .240000000000D+01  .000000000000D+00 -.102445483208D-07  .740000000000D+02
     .518406000000D+06  .400000000000D+01
 9 12  6 30  2  0  0.0  .168501865119D-03  .261479726760D-11  .000000000000D+00
     .210000000000D+02 -.842187500000D+02  .406159775328D-08  .126123967499D+01
    -.471062958241D-05  .175481695915D-01  .272691249847D-05  .515362033653D+04
     .525600000000D+06 -.353902578354D-07  .139783936537D+01 -.357627868652D-06
     .984382523575D+00  .342062500000D+03  .162946538948D+01 -.831177479021D-08
    -.167149819604D-09  .100000000000D+01  .169400000000D+04  .000000000000D+00
     .240000000000D+01  .000000000000D+00 -.558793544769D-08  .210000000000D+02
     .518406000000D+06  .400000000000D+01
10 12  6 30  2  0  0.0 -.430848449469D-04 -.125055521494D-11  .000000000000D+00
     .820000000000D+02  .887812500000D+02  .466912305915D-08 -.592561204427D+00
     .454299151897D-05  .113433860242D-01  .109020620584D-04  .515371473503D+04
     .525600000000D+06  .521540641785D-07 -.666659710904D+00  .193715095520D-06
     .945649002511D+00  .160875000000D+03  .750459298225D+00 -.819855578847D-08
    -.412874340731D-09  .100000000000D+01  .169400000000D+04  .000000000000D+00
     .240000000000D+01  .000000000000D+00 -.232830643654D-08  .820000000000D+02
     .518406000000D+06  .400000000000D+01
11 12  6 30  2  0  0.0 -.276771839708D-03 -.386535248253D-11  .000000000000D+00
     .290000000000D+02 -.229687500000D+02  .666706342424D-08  .206282073327D+01
    -.142864882946D-05  .130454952596D-01  .577606260777D-05  .515367050934D+04
     .525600000000D+06 -.117346644402D-06 -.200988950739D+01 -.292435288429D-06
     .887860315152D+00  .229218750000D+03  .105672260545D+01 -.890215652484D-08
    -.164649715464D-09  .100000000000D+01  .169400000000D+04  .000000000000D+00
     .240000000000D+01  .000000000000D+00 -.116415321827D-07  .290000000000D+02
     .518406000000D+06  .400000000000D+01
12 12  6 30  2  0  0.0  .772788189352D-04  .204636307899D-11  .000000000000D+00
     .640000000000D+02 -.855937500000D+02  .386623247267D-08  .163103993406D+01
    -.461749732494D-05  .407947134227D-02  .105258077383D-04  .515377466202D+04
     .525600000000D+06  .540167093277D-07  .248027806353D+01  .968575477600D-07
     .980380924755D+00  .186562500000D+03  .930029571008D-01 -.765781897890D-08
     .253939149013D-09  .100000000000D+01  .169400000000D+04  .000000000000D+00
     .240000000000D+01  .000000000000D+00 -.121071934700D-07  .640000000000D+02
     .518406000000D+06  .400000000000D+01
13 12  6 30  2  0  0.0  .197777524590D-03 -.250111042988D-11  .000000000000D+00
     .560000000000D+02  .896562500000D+02  .403445376548D-08 -.208632822637D+01
     .470690429211D-05  .496516900603D-02  .303797423840D-05  .515365335274D+04
     .525600000000D+06  .149011611938D-07  .453157812528D+00  .428408384323D-07
     .985666244430D+00  .335000000000D+03  .203081438686D+01 -.809926593836D-08
     .126076680171D-09  .100000000000D+01  .169400000000D+04  .000000000000D+00
     .240000000000D+01  .000000000000D+00 -.111758708954D-07  .560000000000D+02
     .518406000000D+06  .400000000000D+01
14 12  6 30  2  0  0.0  .206173863262D-03  .795807864051D-12  .000000000000D+00
     .510000000000D+02  .919062500000D+02  .407909848225D-08 -.186373966396D+01
     .477582216263D-05  .647208467126D-02  .352784991264D-05  .515360777473D+04
     .525600000000D+06  .152736902237D-06  .426237613890D+00 -.540167093277D-07
     .978499660381D+00  .322812500000D+03 -.206974686186D+01 -.799104714490D-08
     .134648465792D-09  .100000000000D+01  .169400000000D+04  .000000000000D+00
     .240000000000D+01  .000000000000D+00 -.884756445885D-08  .510000000000D+02
     .518406000000D+06  .400000000000D+01
15 12  6 30  2  0  0.0 -.920840539038D-04 -.341060513165D-12  .000000000000D+00
     .910000000000D+02  .118781250000D+03  .485698802733D-08 -.233445475511D+01
     .614300370216D-05  .442706467584D-02  .385567545891D-05  .515358559608D+04
     .525600000000D+06 -.707805156708D-07  .337363157901D+00 -.372529029846D-07
     .945328098264D+00  .298468750000D+03  .483920192876D-01 -.846463830045D-08
     .216437586923D-09  .100000000000D+01  .169400000000D+04  .000000000000D+00
     .240000000000D+01  .000000000000D+00 -.102445483208D-07  .910000000000D+02
     .518406000000D+06  .400000000000D+01
